NORAD_CAT_ID,OBJECT_NAME,OBJECT_TYPE,EPOCH,MEAN_MOTION,ECCENTRICITY,INCLINATION,RA_OF_ASC_NODE,ARG_OF_PERICENTER,MEAN_ANOMALY,BSTAR,MEAN_MOTION_DOT,MEAN_MOTION_DDOT,TLE_LINE0,TLE_LINE1,TLE_LINE2,SEMIMAJOR_AXIS,PERIOD,APOGEE,PERIGEE,DECAYED
52690.0,STARLINK-4035,PAYLOAD,2023-06-23 09:03:19,15.08841497,8.04e-05,53.2169,269.8075,84.0113,276.097,0.00012389,1.685e-05,0.0,0 STARLINK-4035,1 52690U 22053AL  23174.37731415  .00001685  00000-0  12389-3 0  9998,2 52690  53.2169 269.8075 0000804  84.0113 276.0970 15.08841497 61247,6917.876,95.437,540.297,539.185,0.0
52690.0,STARLINK-4035,PAYLOAD,2023-06-24 15:15:39,15.08847176,8.3e-05,53.215,264.1559,74.7478,285.3606,0.00017773,2.543e-05,0.0,0 STARLINK-4035,1 52690U 22053AL  23175.63587199  .00002543  00000-0  17773-3 0  9992,2 52690  53.2150 264.1559 0000830  74.7478 285.3606 15.08847176 61431,6917.858,95.437,540.298,539.149,0.0
52690.0,STARLINK-4035,PAYLOAD,2023-06-25 05:34:07,15.08839148,9.18e-05,53.2147,261.4806,80.4517,279.6579,0.00011227,1.499e-05,0.0,0 STARLINK-4035,1 52690U 22053AL  23176.23203628  .00001499  00000-0  11227-3 0  9998,2 52690  53.2147 261.4806 0000918  80.4517 279.6579 15.08839148 61522,6917.883,95.438,540.383,539.113,0.0
52690.0,STARLINK-4035,PAYLOAD,2023-06-26 10:11:04,15.08832471,8.75e-05,53.2155,256.1259,93.39,266.7192,6.8703e-05,8.06e-06,0.0,0 STARLINK-4035,1 52690U 22053AL  23177.42436266  .00000806  00000-0  68703-4 0  9999,2 52690  53.2155 256.1259 0000875  93.3900 266.7192 15.08832471 61705,6917.903,95.438,540.374,539.163,0.0
52690.0,STARLINK-4035,PAYLOAD,2023-06-27 11:37:14,15.08840013,7.69e-05,53.2164,251.369,97.0175,263.0905,0.00011957,1.616e-05,0.0,0 STARLINK-4035,1 52690U 22053AL  23178.48419961  .00001616  00000-0  11957-3 0  9997,2 52690  53.2164 251.3690 0000769  97.0175 263.0905 15.08840013 61868,6917.88,95.438,540.277,539.213,0.0
52690.0,STARLINK-4035,PAYLOAD,2023-06-28 05:06:29,15.08833074,7.01e-05,53.2156,248.096,99.5779,260.5292,0.00015854,2.236e-05,0.0,0 STARLINK-4035,1 52690U 22053AL  23179.21284512  .00002236  00000-0  15854-3 0  9990,2 52690  53.2156 248.0960 0000701  99.5779 260.5292 15.08833074 61977,6917.902,95.438,540.252,539.282,0.0
52690.0,STARLINK-4035,PAYLOAD,2023-06-28 16:14:11,15.0884312,8.01e-05,53.2173,246.0137,95.5272,264.5812,0.00014767,2.063e-05,0.0,0 STARLINK-4035,1 52690U 22053AL  23179.67651864  .00002063  00000-0  14767-3 0  9998,2 52690  53.2173 246.0137 0000801  95.5272 264.5812 15.08843120 62049,6917.871,95.437,540.29,539.182,0.0
52690.0,STARLINK-4035,PAYLOAD,2023-06-28 21:00:21,15.08836147,9.65e-05,53.2173,245.1209,114.5617,245.5476,8.8952e-05,1.128e-05,0.0,0 STARLINK-4035,1 52690U 22053AL  23179.87524443  .00001128  00000-0  88952-4 0  9991,2 52690  53.2173 245.1209 0000965 114.5617 245.5476 15.08836147 62074,6917.892,95.438,540.425,539.09,0.0
52690.0,STARLINK-4035,PAYLOAD,2023-06-30 20:41:55,15.08829695,8.64e-05,53.2168,236.2043,107.6581,252.4506,0.00012271,1.665e-05,0.0,0 STARLINK-4035,1 52690U 22053AL  23181.86245001  .00001665  00000-0  12271-3 0  9999,2 52690  53.2168 236.2043 0000864 107.6581 252.4506 15.08829695 62370,6917.912,95.438,540.375,539.179,0.0
52690.0,STARLINK-4035,PAYLOAD,2023-07-02 10:51:10,15.08844506,8.3e-05,53.2166,229.067,85.3545,274.7542,4.8325e-05,4.82e-06,0.0,0 STARLINK-4035,1 52690U 22053AL  23183.45220475  .00000482  00000-0  48325-4 0  9990,2 52690  53.2166 229.0670 0000830  85.3545 274.7542 15.08844506 62611,6917.867,95.437,540.306,539.157,0.0
52690.0,STARLINK-4035,PAYLOAD,2023-07-02 20:23:29,15.08836094,7.94e-05,53.2164,227.282,82.7865,277.3217,-5.7828e-07,-2.97e-06,0.0,0 STARLINK-4035,1 52690U 22053AL  23183.84965117 -.00000297  00000-0 -57828-6 0  9998,2 52690  53.2164 227.2820 0000794  82.7865 277.3217 15.08836094 62678,6917.892,95.438,540.307,539.208,0.0
52690.0,STARLINK-4035,PAYLOAD,2023-07-03 09:06:36,15.08820892,8.39e-05,53.2165,224.9035,83.8435,276.2653,-4.853e-05,-1.059e-05,0.0,0 STARLINK-4035,1 52690U 22053AL  23184.37958644 -.00001059  00000-0 -48530-4 0  9999,2 52690  53.2165 224.9035 0000839  83.8435 276.2653 15.08820892 62756,6917.939,95.439,540.384,539.223,0.0
52690.0,STARLINK-4035,PAYLOAD,2023-07-04 02:35:50,15.0883342,8.54e-05,53.2168,221.6307,94.1233,265.9857,-6.3115e-06,-3.88e-06,0.0,0 STARLINK-4035,1 52690U 22053AL  23185.10822171 -.00000388  00000-0 -63115-5 0  9997,2 52690  53.2168 221.6307 0000854  94.1233 265.9857 15.08833420 62867,6917.901,95.438,540.356,539.175,0.0
52690.0,STARLINK-4035,PAYLOAD,2023-07-05 08:48:09,15.08833083,7.86e-05,53.2161,215.9827,76.62,283.4879,0.00017145,2.441e-05,0.0,0 STARLINK-4035,1 52690U 22053AL  23186.36678219  .00002441  00000-0  17145-3 0  9998,2 52690  53.2161 215.9827 0000786  76.6200 283.4879 15.08833083 63052,6917.902,95.438,540.31,539.223,0.0
52690.0,STARLINK-4035,PAYLOAD,2023-07-06 08:38:56,15.08845942,7.91e-05,53.2159,211.5224,74.0427,286.0653,0.00013921,1.929e-05,0.0,0 STARLINK-4035,1 52690U 22053AL  23187.36037650  .00001929  00000-0  13921-3 0  9995,2 52690  53.2159 211.5224 0000791  74.0427 286.0653 15.08845942 63204,6917.862,95.437,540.274,539.18,0.0
52690.0,STARLINK-4035,PAYLOAD,2023-07-07 10:05:06,15.0885232,8.22e-05,53.2159,206.7643,70.5746,289.5335,9.1279e-05,1.166e-05,0.0,0 STARLINK-4035,1 52690U 22053AL  23188.42020948  .00001166  00000-0  91279-4 0  9991,2 52690  53.2159 206.7643 0000822  70.5746 289.5335 15.08852320 63365,6917.843,95.437,540.276,539.139,0.0
52690.0,STARLINK-4035,PAYLOAD,2023-07-08 09:55:53,15.08844272,8.8e-05,53.216,202.304,70.7933,289.3154,-2.2121e-05,-6.4e-06,0.0,0 STARLINK-4035,1 52690U 22053AL  23189.41381358 -.00000640  00000-0 -22121-4 0  9994,2 52690  53.2160 202.3040 0000880  70.7933 289.3154 15.08844272 63515,6917.867,95.437,540.341,539.124,0.0
52690.0,STARLINK-4035,PAYLOAD,2023-07-09 12:57:26,15.0884097,8.92e-05,53.2161,197.248,75.2122,284.8969,-3.1273e-05,-7.85e-06,0.0,0 STARLINK-4035,1 52690U 22053AL  23190.53989363 -.00000785  00000-0 -31273-4 0  9997,2 52690  53.2161 197.2480 0000892  75.2122 284.8969 15.08840970 63682,6917.877,95.437,540.359,539.125,0.0
52690.0,STARLINK-4035,PAYLOAD,2023-07-10 17:34:23,15.08840473,8.59e-05,53.216,191.8955,73.0635,287.0452,5.2173e-05,5.43e-06,0.0,0 STARLINK-4035,1 52690U 22053AL  23191.73221109  .00000543  00000-0  52173-4 0  9999,2 52690  53.2160 191.8955 0000859  73.0635 287.0452 15.08840473 63866,6917.879,95.438,540.338,539.15,0.0
52690.0,STARLINK-4035,PAYLOAD,2023-07-11 23:46:42,15.08838859,9.14e-05,53.2161,186.2454,74.644,285.4653,8.1775e-06,-1.58e-06,0.0,0 STARLINK-4035,1 52690U 22053AL  23192.99077297 -.00000158  00000-0  81775-5 0  9999,2 52690  53.2161 186.2454 0000914  74.6440 285.4653 15.08838859 64054,6917.884,95.438,540.381,539.117,0.0
52690.0,STARLINK-4035,PAYLOAD,2023-07-13 10:45:11,15.08840957,0.0001029,53.2169,179.7036,77.5047,282.606,1.1843e-05,-9.9e-07,0.0,0 STARLINK-4035,1 52690U 22053AL  23194.44805140 -.00000099  00000-0  11843-4 0  9999,2 52690  53.2169 179.7036 0001029  77.5047 282.6060 15.08840957 64275,6917.877,95.437,540.454,539.031,0.0
52690.0,STARLINK-4035,PAYLOAD,2023-07-14 15:22:08,15.08835706,0.0001033,53.2161,174.3524,80.2799,279.831,8.6607e-06,-1.5e-06,0.0,0 STARLINK-4035,1 52690U 22053AL  23195.64037796 -.00000150  00000-0  86607-5 0  9995,2 52690  53.2161 174.3524 0001033  80.2799 279.8310 15.08835706 64452,6917.894,95.438,540.473,539.044,0.0
52690.0,STARLINK-4035,PAYLOAD,2023-07-15 08:51:22,15.08842455,0.0001038,53.217,171.0807,77.3041,282.8068,7.6106e-05,9.24e-06,0.0,0 STARLINK-4035,1 52690U 22053AL  23196.36901349  .00000924  00000-0  76106-4 0  9999,2 52690  53.2170 171.0807 0001038  77.3041 282.8068 15.08842455 64567,6917.873,95.437,540.456,539.02,0.0
52690.0,STARLINK-4035,PAYLOAD,2023-07-15 15:12:55,15.08837417,9.46e-05,53.2163,169.8911,80.7456,279.3643,2.1282e-05,5.1e-07,0.0,0 STARLINK-4035,1 52690U 22053AL  23196.63397844  .00000051  00000-0  21282-4 0  9994,2 52690  53.2163 169.8911 0000946  80.7456 279.3643 15.08837417 64602,6917.888,95.438,540.408,539.099,0.0
52690.0,STARLINK-4035,PAYLOAD,2023-07-17 05:22:11,15.0883978,0.0001291,53.2179,162.7538,102.2869,257.8268,5.6369e-05,6.09e-06,0.0,0 STARLINK-4035,1 52690U 22053AL  23198.22374120  .00000609  00000-0  56369-4 0  9996,2 52690  53.2179 162.7538 0001291 102.2869 257.8268 15.08839780 64843,6917.881,95.438,540.639,538.853,0.0
52690.0,STARLINK-4035,PAYLOAD,2023-07-19 01:52:57,15.08882491,0.0001286,53.2164,154.4282,74.8292,285.2842,-0.00052718,-8.678e-05,0.0,0 STARLINK-4035,1 52690U 22053AL  23200.07844600 -.00008678  00000-0 -52718-3 0  9997,2 52690  53.2164 154.4282 0001286  74.8292 285.2842 15.08882491 65121,6917.751,95.435,540.505,538.726,0.0
52690.0,STARLINK-4035,PAYLOAD,2023-07-19 06:39:08,15.08845717,0.0001084,53.2165,153.5364,88.8657,271.2459,4.019e-05,3.52e-06,0.0,0 STARLINK-4035,1 52690U 22053AL  23200.27717614  .00000352  00000-0  40190-4 0  9994,2 52690  53.2165 153.5364 0001084  88.8657 271.2459 15.08845717 65151,6917.863,95.437,540.478,538.978,0.0
52690.0,STARLINK-4035,PAYLOAD,2023-07-19 20:57:37,15.08823413,0.0001399,53.2166,150.8609,83.0432,277.0719,0.00012666,1.728e-05,0.0,0 STARLINK-4035,1 52690U 22053AL  23200.87335067  .00001728  00000-0  12666-3 0  9992,2 52690  53.2166 150.8609 0001399  83.0432 277.0719 15.08823413 65243,6917.931,95.439,540.764,538.828,0.0
52690.0,STARLINK-4035,PAYLOAD,2023-07-21 01:34:33,15.08837658,0.0001247,53.2172,145.5079,97.6344,262.479,4.3411e-05,4.03e-06,0.0,0 STARLINK-4035,1 52690U 22053AL  23202.06566415  .00000403  00000-0  43411-4 0  9990,2 52690  53.2172 145.5079 0001247  97.6344 262.4790 15.08837658 65420,6917.888,95.438,540.615,538.89,0.0
52690.0,STARLINK-4035,PAYLOAD,2023-07-21 06:20:42,15.08843086,0.000117,53.2174,144.6148,100.5908,259.5216,6.8011e-05,7.95e-06,0.0,0 STARLINK-4035,1 52690U 22053AL  23202.26437989  .00000795  00000-0  68011-4 0  9992,2 52690  53.2174 144.6148 0001170 100.5908 259.5216 15.08843086 65459,6917.871,95.437,540.545,538.927,0.0
